{"type": "FeatureCollection", "features": [ {"type": "Feature", "properties": {"norad_id": 34077, "name": "IRIDIUM 33 DEB", "group": "iridium-33-debris", "lat": 86.38090704724011, "lon": 139.53845937626363, "alt_km": 668.5142623037473, "timestamp": "2025-12-21T07:34:34.899999+00:00", "meta": {"OBJECT_NAME": "IRIDIUM 33 DEB", "OBJECT_ID": "1997-051CL", "EPOCH": "2025-12-20T15:28:27.275232", "MEAN_MOTION": 14.64914051, "ECCENTRICITY": 0.0009286, "INCLINATION": 86.3851, "RA_OF_ASC_NODE": 48.0252, "ARG_OF_PERICENTER": 14.2051, "MEAN_ANOMALY": 139.8659, "EPHEMERIS_TYPE": 0, "CLASSIFICATION_TYPE": "U", "NORAD_CAT_ID": 34077, "ELEMENT_SET_NO": 999, "REV_AT_EPOCH": 88448, "BSTAR": 0.00067746, "MEAN_MOTION_DOT": 3.646e-05, "MEAN_MOTION_DDOT": 0}, "tle": {"line1": "1 34077U 97051CL  25354.64476013  .00003646  00000+0  67746-3 0  9994", "line2": "2 34077  86.3851  48.0252 0009286  14.2051 139.8659 14.64914051884481"}}, "geometry": {"type": "Point", "coordinates": [139.53845937626363, 86.38090704724011]}}, {"type": "Feature", "properties": {"norad_id": 34079, "name": "IRIDIUM 33 DEB", "group": "iridium-33-debris", "lat": -60.012690147528666, "lon": -1.5426163819795808, "alt_km": 622.2272754256992, "timestamp": "2025-12-21T07:34:34.900008+00:00", "meta": {"OBJECT_NAME": "IRIDIUM 33 DEB", "OBJECT_ID": "1997-051CN", "EPOCH": "2025-12-20T07:37:00.373152", "MEAN_MOTION": 14.83707217, "ECCENTRICITY": 0.00047155, "INCLINATION": 86.3768, "RA_OF_ASC_NODE": 5.2156, "ARG_OF_PERICENTER": 341.2972, "MEAN_ANOMALY": 29.7285, "EPHEMERIS_TYPE": 0, "CLASSIFICATION_TYPE": "U", "NORAD_CAT_ID": 34079, "ELEMENT_SET_NO": 999, "REV_AT_EPOCH": 89090, "BSTAR": 0.0011458545, "MEAN_MOTION_DOT": 9.499e-05, "MEAN_MOTION_DDOT": 0}, "tle": {"line1": "1 34079U 97051CN  25354.31736543  .00009499  00000+0  11459-2 0  9998", "line2": "2 34079  86.3768   5.2156 0004715 341.2972  29.7285 14.83707217890906"}}, "geometry": {"type": "Point", "coordinates": [-1.5426163819795808, -60.012690147528666]}}, {"type": "Feature", "properties": {"norad_id": 34088, "name": "IRIDIUM 33 DEB", "group": "iridium-33-debris", "lat": -82.93767897455018, "lon": -3.910771975932948, "alt_km": 602.7395925420997, "timestamp": "2025-12-21T07:34:34.900018+00:00", "meta": {"OBJECT_NAME": "IRIDIUM 33 DEB", "OBJECT_ID": "1997-051CX", "EPOCH": "2025-12-20T21:13:03.255744", "MEAN_MOTION": 14.91717311, "ECCENTRICITY": 0.00065952, "INCLINATION": 86.384, "RA_OF_ASC_NODE": 26.9809, "ARG_OF_PERICENTER": 150.9529, "MEAN_ANOMALY": 328.7455, "EPHEMERIS_TYPE": 0, "CLASSIFICATION_TYPE": "U", "NORAD_CAT_ID": 34088, "ELEMENT_SET_NO": 999, "REV_AT_EPOCH": 88863, "BSTAR": 0.0014513836, "MEAN_MOTION_DOT": 0.00014649, "MEAN_MOTION_DDOT": 0}, "tle": {"line1": "1 34088U 97051CX  25354.88406546  .00014649  00000+0  14514-2 0  9995", "line2": "2 34088  86.3840  26.9809 0006595 150.9529 328.7455 14.91717311888636"}}, "geometry": {"type": "Point", "coordinates": [-3.910771975932948, -82.93767897455018]}}, {"type": "Feature", "properties": {"norad_id": 34091, "name": "IRIDIUM 33 DEB", "group": "iridium-33-debris", "lat": 9.710090856977647, "lon": -117.72216291570281, "alt_km": 624.4074344488045, "timestamp": "2025-12-21T07:34:34.900027+00:00", "meta": {"OBJECT_NAME": "IRIDIUM 33 DEB", "OBJECT_ID": "1997-051DA", "EPOCH": "2025-12-20T22:42:25.956864", "MEAN_MOTION": 14.82364714, "ECCENTRICITY": 0.00340722, "INCLINATION": 86.3416, "RA_OF_ASC_NODE": 63.0745, "ARG_OF_PERICENTER": 263.6319, "MEAN_ANOMALY": 96.1023, "EPHEMERIS_TYPE": 0, "CLASSIFICATION_TYPE": "U", "NORAD_CAT_ID": 34091, "ELEMENT_SET_NO": 999, "REV_AT_EPOCH": 87988, "BSTAR": 0.0029658687, "MEAN_MOTION_DOT": 0.00024051, "MEAN_MOTION_DDOT": 0}, "tle": {"line1": "1 34091U 97051DA  25354.94613376  .00024051  00000+0  29659-2 0  9991", "line2": "2 34091  86.3416  63.0745 0034072 263.6319  96.1023 14.82364714879889"}}, "geometry": {"type": "Point", "coordinates": [-117.72216291570281, 9.710090856977647]}}, {"type": "Feature", "properties": {"norad_id": 34097, "name": "IRIDIUM 33 DEB", "group": "iridium-33-debris", "lat": 40.53306522576527, "lon": 0.880435042165691, "alt_km": 748.8528346945513, "timestamp": "2025-12-21T07:34:34.900037+00:00", "meta": {"OBJECT_NAME": "IRIDIUM 33 DEB", "OBJECT_ID": "1997-051DG", "EPOCH": "2025-12-20T11:18:18.737280", "MEAN_MOTION": 14.34833925, "ECCENTRICITY": 0.00817307, "INCLINATION": 86.2, "RA_OF_ASC_NODE": 357.9952, "ARG_OF_PERICENTER": 336.8917, "MEAN_ANOMALY": 22.861, "EPHEMERIS_TYPE": 0, "CLASSIFICATION_TYPE": "U", "NORAD_CAT_ID": 34097, "ELEMENT_SET_NO": 999, "REV_AT_EPOCH": 87230, "BSTAR": 0.0010165837, "MEAN_MOTION_DOT": 3.014e-05, "MEAN_MOTION_DDOT": 0}, "tle": {"line1": "1 34097U 97051DG  25354.47105020  .00003014  00000+0  10166-2 0  9996", "line2": "2 34097  86.2000 357.9952 0081730 336.8917  22.8610 14.34833925872308"}}, "geometry": {"type": "Point", "coordinates": [0.880435042165691, 40.53306522576527]}}, {"type": "Feature", "properties": {"norad_id": 34145, "name": "IRIDIUM 33 DEB", "group": "iridium-33-debris", "lat": -1.2831265557272942, "lon": 148.7915463387872, "alt_km": 770.3649420754546, "timestamp": "2025-12-21T07:34:34.900046+00:00", "meta": {"OBJECT_NAME": "IRIDIUM 33 DEB", "OBJECT_ID": "1997-051DY", "EPOCH": "2025-12-20T22:25:09.622560", "MEAN_MOTION": 14.42341127, "ECCENTRICITY": 0.0055711, "INCLINATION": 86.2115, "RA_OF_ASC_NODE": 328.8764, "ARG_OF_PERICENTER": 67.7948, "MEAN_ANOMALY": 292.915, "EPHEMERIS_TYPE": 0, "CLASSIFICATION_TYPE": "U", "NORAD_CAT_ID": 34145, "ELEMENT_SET_NO": 999, "REV_AT_EPOCH": 87756, "BSTAR": 0.00076758524, "MEAN_MOTION_DOT": 2.602e-05, "MEAN_MOTION_DDOT": 0}, "tle": {"line1": "1 34145U 97051DY  25354.93413915  .00002602  00000+0  76759-3 0  9999", "line2": "2 34145  86.2115 328.8764 0055711  67.7948 292.9150 14.42341127877560"}}, "geometry": {"type": "Point", "coordinates": [148.7915463387872, -1.2831265557272942]}}, {"type": "Feature", "properties": {"norad_id": 34146, "name": "IRIDIUM 33 DEB", "group": "iridium-33-debris", "lat": 26.330781186433576, "lon": -12.14476124084628, "alt_km": 745.7946603313321, "timestamp": "2025-12-21T07:34:34.900055+00:00", "meta": {"OBJECT_NAME": "IRIDIUM 33 DEB", "OBJECT_ID": "1997-051DZ", "EPOCH": "2025-12-20T10:36:37.304352", "MEAN_MOTION": 14.49095208, "ECCENTRICITY": 0.00262607, "INCLINATION": 86.283, "RA_OF_ASC_NODE": 346.3974, "ARG_OF_PERICENTER": 194.7947, "MEAN_ANOMALY": 317.4256, "EPHEMERIS_TYPE": 0, "CLASSIFICATION_TYPE": "U", "NORAD_CAT_ID": 34146, "ELEMENT_SET_NO": 999, "REV_AT_EPOCH": 88218, "BSTAR": 0.00059944717, "MEAN_MOTION_DOT": 2.307e-05, "MEAN_MOTION_DDOT": 0}, "tle": {"line1": "1 34146U 97051DZ  25354.44209843  .00002307  00000+0  59945-3 0  9999", "line2": "2 34146  86.2830 346.3974 0026260 194.7947 317.4256 14.49095208882187"}}, "geometry": {"type": "Point", "coordinates": [-12.14476124084628, 26.330781186433576]}}, {"type": "Feature", "properties": {"norad_id": 34159, "name": "IRIDIUM 33 DEB", "group": "iridium-33-debris", "lat": 44.60867891027294, "lon": -139.02557105013057, "alt_km": 769.6553187486106, "timestamp": "2025-12-21T07:34:34.900065+00:00", "meta": {"OBJECT_NAME": "IRIDIUM 33 DEB", "OBJECT_ID": "1997-051EN", "EPOCH": "2025-12-20T15:55:20.560224", "MEAN_MOTION": 14.38511056, "ECCENTRICITY": 0.00260401, "INCLINATION": 86.3499, "RA_OF_ASC_NODE": 44.8627, "ARG_OF_PERICENTER": 259.811, "MEAN_ANOMALY": 100.0151, "EPHEMERIS_TYPE": 0, "CLASSIFICATION_TYPE": "U", "NORAD_CAT_ID": 34159, "ELEMENT_SET_NO": 999, "REV_AT_EPOCH": 88073, "BSTAR": 0.00025986701, "MEAN_MOTION_DOT": 8.16e-06, "MEAN_MOTION_DDOT": 0}, "tle": {"line1": "1 34159U 97051EN  25354.66343241  .00000816  00000+0  25987-3 0  9990", "line2": "2 34159  86.3499  44.8627 0026040 259.8110 100.0151 14.38511056880730"}}, "geometry": {"type": "Point", "coordinates": [-139.02557105013057, 44.60867891027294]}}, {"type": "Feature", "properties": {"norad_id": 34350, "name": "IRIDIUM 33 DEB", "group": "iridium-33-debris", "lat": 16.301945507470112, "lon": 0.16210079791657292, "alt_km": 742.0301495712911, "timestamp": "2025-12-21T07:34:34.900074+00:00", "meta": {"OBJECT_NAME": "IRIDIUM 33 DEB", "OBJECT_ID": "1997-051ES", "EPOCH": "2025-12-20T12:08:32.676864", "MEAN_MOTION": 14.45403421, "ECCENTRICITY": 0.00233571, "INCLINATION": 86.3272, "RA_OF_ASC_NODE": 359.437, "ARG_OF_PERICENTER": 111.3737, "MEAN_ANOMALY": 14.544, "EPHEMERIS_TYPE": 0, "CLASSIFICATION_TYPE": "U", "NORAD_CAT_ID": 34350, "ELEMENT_SET_NO": 999, "REV_AT_EPOCH": 88405, "BSTAR": 0.00023374563, "MEAN_MOTION_DOT": 8.45e-06, "MEAN_MOTION_DDOT": 0}, "tle": {"line1": "1 34350U 97051ES  25354.50593376  .00000845  00000+0  23375-3 0  9993", "line2": "2 34350  86.3272 359.4370 0023357 111.3737  14.5440 14.45403421884050"}}, "geometry": {"type": "Point", "coordinates": [0.16210079791657292, 16.301945507470112]}}, {"type": "Feature", "properties": {"norad_id": 34366, "name": "IRIDIUM 33 DEB", "group": "iridium-33-debris", "lat": -72.56360403691923, "lon": -122.75221519304769, "alt_km": 732.1222737253465, "timestamp": "2025-12-21T07:34:34.900083+00:00", "meta": {"OBJECT_NAME": "IRIDIUM 33 DEB", "OBJECT_ID": "1997-051FJ", "EPOCH": "2025-12-20T14:28:26.320224", "MEAN_MOTION": 14.54113627, "ECCENTRICITY": 0.0022983, "INCLINATION": 86.369, "RA_OF_ASC_NODE": 45.8934, "ARG_OF_PERICENTER": 115.1791, "MEAN_ANOMALY": 9.6225, "EPHEMERIS_TYPE": 0, "CLASSIFICATION_TYPE": "U", "NORAD_CAT_ID": 34366, "ELEMENT_SET_NO": 999, "REV_AT_EPOCH": 88296, "BSTAR": 0.00058239, "MEAN_MOTION_DOT": 2.489e-05, "MEAN_MOTION_DDOT": 0}, "tle": {"line1": "1 34366U 97051FJ  25354.60308241  .00002489  00000+0  58239-3 0  9999", "line2": "2 34366  86.3690  45.8934 0022983 115.1791   9.6225 14.54113627882969"}}, "geometry": {"type": "Point", "coordinates": [-122.75221519304769, -72.56360403691923]}}]}